MALLIGYONG-1            
1 58400U 23179A   24007.44205156  .00005413  00000+0  24071-3 0  9998
2 58400  97.4257 256.6020 0017410 110.9414 249.3688 15.21784662  7129
